*******************************************************************************
Ephemeris / WWW_USER Mon Jul 15 19:18:00 2024 Pasadena, USA      / Horizons    
*******************************************************************************
Target body name: (2018 YU2)                      {source: JPL#5}
Center body name: Earth (399)                     {source: DE441}
Center-site name: Gemini South Obs., Cerro Pachon
*******************************************************************************
Start time      : A.D. 2018-Dec-14 23:49:00.0000 UT      
Stop  time      : A.D. 2018-Dec-15 09:26:00.0000 UT      
Step-size       : 1 minutes
*******************************************************************************
Target pole/equ : undefined
Target radii    : undefined                                                    
Center geodetic : 289.2634, -30.2406227, 2.71233  {E-lon(deg),Lat(deg),Alt(km)}
Center cylindric: 289.2634,5517.21435,-3194.81213 {E-lon(deg),Dxy(km),Dz(km)}
Center pole/equ : ITRF93                          {East-longitude positive}
Center radii    : 6378.137, 6378.137, 6356.752 km {Equator_a, b, pole_c}       
Target primary  : Sun
Vis. interferer : MOON (R_eq= 1737.400) km        {source: DE441}
Rel. light bend : Sun                             {source: DE441}
Rel. lght bnd GM: 1.3271E+11 km^3/s^2                                          
Small-body perts: Yes                             {source: SB441-N16}
Atmos refraction: NO (AIRLESS)
RA format       : HMS
Time format     : CAL 
Calendar mode   : Mixed Julian/Gregorian
RTS-only print  : NO       
EOP file        : eop.240715.p241008                                           
EOP coverage    : DATA-BASED 1962-JAN-20 TO 2024-JUL-15. PREDICTS-> 2024-OCT-07
Units conversion: 1 au= 149597870.700 km, c= 299792.458 km/s, 1 day= 86400.0 s 
Table cut-offs 1: Elevation (-90.0deg=NO ),Airmass (>38.000=NO), Daylight (YES)
Table cut-offs 2: Solar elongation (  0.0,180.0=NO ),Local Hour Angle( 0.0=NO )
Table cut-offs 3: RA/DEC angular rate (     0.0=NO )                           
*******************************************************************************
Initial IAU76/J2000 heliocentric ecliptic osculating elements (au, days, deg.):
  EPOCH=  2458477.5 ! 2018-Dec-25.00 (TDB)         Residual RMS= .22887        
   EC= .1533598773405833   QR= .920984914841031    TP= 2458549.1486254167      
   OM= 279.4515303175068   W=  253.4059234937716   IN= 2.850769624588425       
  Equivalent ICRF heliocentric cartesian coordinates (au, au/d):
   X=-6.842297687009524E-02  Y= 9.429126817220428E-01  Z= 4.143187104036840E-01
  VX=-1.695115058702848E-02 VY=-2.997207899955317E-03 VZ=-2.239432528215744E-03
Asteroid physical parameters (km, seconds, rotational period in hours):        
   GM= n.a.                RAD= n.a.               ROTPER= n.a.                
   H= 26.5                 G= .150                 B-V= n.a.                   
                           ALBEDO= n.a.            STYP= n.a.                  
*******************************************************************************
 Date__(UT)__HR:MN     R.A._________(ICRF)_________DEC
******************************************************
$$SOE
 2018-Dec-15 01:52  m  07 21 37.743656 +31 52 14.13044
 2018-Dec-15 01:53  m  07 21 37.794954 +31 52 13.65334
 2018-Dec-15 01:54  m  07 21 37.846120 +31 52 13.17586
 2018-Dec-15 01:55  m  07 21 37.897155 +31 52 12.69801
 2018-Dec-15 01:56  m  07 21 37.948058 +31 52 12.21978
 2018-Dec-15 01:57  m  07 21 37.998830 +31 52 11.74117
 2018-Dec-15 01:58  m  07 21 38.049471 +31 52 11.26217
 2018-Dec-15 01:59  m  07 21 38.099981 +31 52 10.78278
 2018-Dec-15 02:00  m  07 21 38.150361 +31 52 10.30300
 2018-Dec-15 02:01  m  07 21 38.200610 +31 52 09.82281
 2018-Dec-15 02:02  m  07 21 38.250730 +31 52 09.34223
 2018-Dec-15 02:03  m  07 21 38.300719 +31 52 08.86124
 2018-Dec-15 02:04  m  07 21 38.350579 +31 52 08.37984
 2018-Dec-15 02:05  m  07 21 38.400309 +31 52 07.89803
 2018-Dec-15 02:06  m  07 21 38.449911 +31 52 07.41580
 2018-Dec-15 02:07  m  07 21 38.499383 +31 52 06.93316
 2018-Dec-15 02:08  m  07 21 38.548726 +31 52 06.45008
 2018-Dec-15 02:09  m  07 21 38.597942 +31 52 05.96658
 2018-Dec-15 02:10  m  07 21 38.647028 +31 52 05.48264
 2018-Dec-15 02:11  m  07 21 38.695987 +31 52 04.99827
 2018-Dec-15 02:12  m  07 21 38.744819 +31 52 04.51346
 2018-Dec-15 02:13  m  07 21 38.793522 +31 52 04.02821
 2018-Dec-15 02:14  m  07 21 38.842099 +31 52 03.54250
 2018-Dec-15 02:15  m  07 21 38.890549 +31 52 03.05635
 2018-Dec-15 02:16  m  07 21 38.938872 +31 52 02.56974
 2018-Dec-15 02:17  m  07 21 38.987068 +31 52 02.08267
 2018-Dec-15 02:18  m  07 21 39.035139 +31 52 01.59514
 2018-Dec-15 02:19  m  07 21 39.083083 +31 52 01.10715
 2018-Dec-15 02:20  m  07 21 39.130902 +31 52 00.61868
 2018-Dec-15 02:21  m  07 21 39.178595 +31 52 00.12974
 2018-Dec-15 02:22  m  07 21 39.226164 +31 51 59.64032
 2018-Dec-15 02:23  m  07 21 39.273607 +31 51 59.15043
 2018-Dec-15 02:24  m  07 21 39.320926 +31 51 58.66004
 2018-Dec-15 02:25  m  07 21 39.368121 +31 51 58.16917
 2018-Dec-15 02:26  m  07 21 39.415192 +31 51 57.67781
 2018-Dec-15 02:27  m  07 21 39.462139 +31 51 57.18595
 2018-Dec-15 02:28  m  07 21 39.508963 +31 51 56.69359
 2018-Dec-15 02:29  m  07 21 39.555664 +31 51 56.20073
 2018-Dec-15 02:30  m  07 21 39.602242 +31 51 55.70736
 2018-Dec-15 02:31  m  07 21 39.648697 +31 51 55.21348
 2018-Dec-15 02:32  m  07 21 39.695030 +31 51 54.71909
 2018-Dec-15 02:33  m  07 21 39.741242 +31 51 54.22418
 2018-Dec-15 02:34  m  07 21 39.787331 +31 51 53.72875
 2018-Dec-15 02:35  m  07 21 39.833300 +31 51 53.23279
 2018-Dec-15 02:36  m  07 21 39.879147 +31 51 52.73630
 2018-Dec-15 02:37  m  07 21 39.924874 +31 51 52.23929
 2018-Dec-15 02:38  m  07 21 39.970480 +31 51 51.74173
 2018-Dec-15 02:39  m  07 21 40.015967 +31 51 51.24364
 2018-Dec-15 02:40  m  07 21 40.061333 +31 51 50.74501
 2018-Dec-15 02:41  m  07 21 40.106580 +31 51 50.24583
 2018-Dec-15 02:42  m  07 21 40.151709 +31 51 49.74610
 2018-Dec-15 02:43  m  07 21 40.196718 +31 51 49.24581
 2018-Dec-15 02:44  m  07 21 40.241609 +31 51 48.74497
 2018-Dec-15 02:45  m  07 21 40.286381 +31 51 48.24357
 2018-Dec-15 02:46  m  07 21 40.331036 +31 51 47.74161
 2018-Dec-15 02:47  m  07 21 40.375574 +31 51 47.23908
 2018-Dec-15 02:48  m  07 21 40.419994 +31 51 46.73597
 2018-Dec-15 02:49  m  07 21 40.464298 +31 51 46.23230
 2018-Dec-15 02:50  m  07 21 40.508485 +31 51 45.72804
 2018-Dec-15 02:51  m  07 21 40.552556 +31 51 45.22321
 2018-Dec-15 02:52  m  07 21 40.596511 +31 51 44.71779
 2018-Dec-15 02:53  m  07 21 40.640351 +31 51 44.21178
 2018-Dec-15 02:54  m  07 21 40.684076 +31 51 43.70518
 2018-Dec-15 02:55  m  07 21 40.727686 +31 51 43.19798
 2018-Dec-15 02:56  m  07 21 40.771182 +31 51 42.69019
 2018-Dec-15 02:57  m  07 21 40.814564 +31 51 42.18180
 2018-Dec-15 02:58  m  07 21 40.857832 +31 51 41.67280
 2018-Dec-15 02:59  m  07 21 40.900987 +31 51 41.16319
 2018-Dec-15 03:00  m  07 21 40.944028 +31 51 40.65297
 2018-Dec-15 03:01  m  07 21 40.986958 +31 51 40.14214
 2018-Dec-15 03:02  m  07 21 41.029775 +31 51 39.63069
 2018-Dec-15 03:03  m  07 21 41.072480 +31 51 39.11861
 2018-Dec-15 03:04  m  07 21 41.115074 +31 51 38.60591
 2018-Dec-15 03:05  m  07 21 41.157557 +31 51 38.09259
 2018-Dec-15 03:06  m  07 21 41.199929 +31 51 37.57863
 2018-Dec-15 03:07  m  07 21 41.242191 +31 51 37.06403
 2018-Dec-15 03:08  m  07 21 41.284343 +31 51 36.54880
 2018-Dec-15 03:09  m  07 21 41.326385 +31 51 36.03293
 2018-Dec-15 03:10  m  07 21 41.368319 +31 51 35.51641
 2018-Dec-15 03:11  m  07 21 41.410143 +31 51 34.99925
 2018-Dec-15 03:12  m  07 21 41.451859 +31 51 34.48143
 2018-Dec-15 03:13  m  07 21 41.493467 +31 51 33.96296
 2018-Dec-15 03:14  m  07 21 41.534967 +31 51 33.44383
 2018-Dec-15 03:15  m  07 21 41.576360 +31 51 32.92404
 2018-Dec-15 03:16  m  07 21 41.617646 +31 51 32.40359
 2018-Dec-15 03:17  m  07 21 41.658826 +31 51 31.88247
 2018-Dec-15 03:18  m  07 21 41.699900 +31 51 31.36068
 2018-Dec-15 03:19  m  07 21 41.740868 +31 51 30.83822
 2018-Dec-15 03:20  m  07 21 41.781731 +31 51 30.31508
 2018-Dec-15 03:21  m  07 21 41.822489 +31 51 29.79126
 2018-Dec-15 03:22  m  07 21 41.863143 +31 51 29.26676
 2018-Dec-15 03:23  m  07 21 41.903693 +31 51 28.74157
 2018-Dec-15 03:24  m  07 21 41.944139 +31 51 28.21569
 2018-Dec-15 03:25  m  07 21 41.984482 +31 51 27.68912
 2018-Dec-15 03:26  m  07 21 42.024722 +31 51 27.16186
 2018-Dec-15 03:27  m  07 21 42.064860 +31 51 26.63390
 2018-Dec-15 03:28  m  07 21 42.104896 +31 51 26.10524
 2018-Dec-15 03:29  m  07 21 42.144831 +31 51 25.57587
 2018-Dec-15 03:30  m  07 21 42.184664 +31 51 25.04580
 2018-Dec-15 03:31  m  07 21 42.224397 +31 51 24.51501
 2018-Dec-15 03:32  m  07 21 42.264030 +31 51 23.98352
 2018-Dec-15 03:33  m  07 21 42.303563 +31 51 23.45131
 2018-Dec-15 03:34  m  07 21 42.342996 +31 51 22.91837
 2018-Dec-15 03:35  m  07 21 42.382331 +31 51 22.38472
 2018-Dec-15 03:36  m  07 21 42.421567 +31 51 21.85034
 2018-Dec-15 03:37  m  07 21 42.460705 +31 51 21.31524
 2018-Dec-15 03:38  m  07 21 42.499745 +31 51 20.77940
 2018-Dec-15 03:39  m  07 21 42.538689 +31 51 20.24283
 2018-Dec-15 03:40  m  07 21 42.577535 +31 51 19.70553
 2018-Dec-15 03:41  m  07 21 42.616286 +31 51 19.16748
 2018-Dec-15 03:42  m  07 21 42.654941 +31 51 18.62869
 2018-Dec-15 03:43  m  07 21 42.693500 +31 51 18.08916
 2018-Dec-15 03:44  m  07 21 42.731964 +31 51 17.54888
 2018-Dec-15 03:45  m  07 21 42.770334 +31 51 17.00785
 2018-Dec-15 03:46  m  07 21 42.808610 +31 51 16.46607
 2018-Dec-15 03:47  m  07 21 42.846792 +31 51 15.92353
 2018-Dec-15 03:48  m  07 21 42.884881 +31 51 15.38023
 2018-Dec-15 03:49  m  07 21 42.922878 +31 51 14.83617
 2018-Dec-15 03:50  m  07 21 42.960783 +31 51 14.29134
 2018-Dec-15 03:51  m  07 21 42.998595 +31 51 13.74575
 2018-Dec-15 03:52  m  07 21 43.036317 +31 51 13.19939
 2018-Dec-15 03:53  m  07 21 43.073948 +31 51 12.65225
 2018-Dec-15 03:54  m  07 21 43.111488 +31 51 12.10434
